start=new Date('2022-08-24T00:00:00.000Z').valueOf();
sats=[{"ELEMENT_SET_NO":"999","MEAN_ELEMENT_THEORY":"SGP4","CENTER_NAME":"EARTH","REF_FRAME":"TEME","PERIAPSIS":"545.942","APOAPSIS":"548.471","CLASSIFICATION_TYPE":"U","OBJECT_ID":"2021-036T","OBJECT_NAME":"STARLINK-2550","RA_OF_ASC_NODE":"130.1382","INCLINATION":"53.0532","SITE":"AFETR","BSTAR":"0.00019205000000","MEAN_MOTION_DDOT":"0.0000000000000","SEMIMAJOR_AXIS":"6925.341","TIME_SYSTEM":"UTC","PERIOD":"95.592","ECCENTRICITY":"0.00018260","REV_AT_EPOCH":"7329","EPOCH":"2022-08-23T19:07:38.867232","NORAD_CAT_ID":"48293","DECAY_DATE":null,"TLE_LINE1":"1 48293U 21036T   22235.79697763  .00002580  00000-0  19205-3 0  9991","LAUNCH_DATE":"2021-04-29","RCS_SIZE":"LARGE","GP_ID":"210859632","ARG_OF_PERICENTER":"79.2291","COUNTRY_CODE":"US","FILE":"3545624","OBJECT_TYPE":"PAYLOAD","MEAN_ANOMALY":"280.8904","TLE_LINE2":"2 48293  53.0532 130.1382 0001826  79.2291 280.8904 15.06402340 73298","MEAN_MOTION_DOT":"0.00002580","EPHEMERIS_TYPE":"0","MEAN_MOTION":"15.06402340"},{"COUNTRY_CODE":"US","MEAN_MOTION":"15.06398288","EPHEMERIS_TYPE":"0","OBJECT_TYPE":"PAYLOAD","FILE":"3545624","MEAN_MOTION_DOT":"0.00000162","MEAN_ANOMALY":"286.0116","TLE_LINE2":"2 48294  53.0544 130.7438 0001600  74.1049 286.0116 15.06398288 73271","EPOCH":"2022-08-23T15:51:15.179040","NORAD_CAT_ID":"48294","REV_AT_EPOCH":"7327","DECAY_DATE":null,"PERIOD":"95.592","ECCENTRICITY":"0.00016000","GP_ID":"210859880","ARG_OF_PERICENTER":"74.1049","LAUNCH_DATE":"2021-04-29","TLE_LINE1":"1 48294U 21036U   22235.66059235  .00000162  00000-0  29746-4 0  9990","RCS_SIZE":"LARGE","MEAN_MOTION_DDOT":"0.0000000000000","BSTAR":"0.00002974600000","SEMIMAJOR_AXIS":"6925.354","INCLINATION":"53.0544","SITE":"AFETR","TIME_SYSTEM":"UTC","PERIAPSIS":"546.111","APOAPSIS":"548.327","REF_FRAME":"TEME","ELEMENT_SET_NO":"999","CENTER_NAME":"EARTH","MEAN_ELEMENT_THEORY":"SGP4","RA_OF_ASC_NODE":"130.7438","OBJECT_ID":"2021-036U","OBJECT_NAME":"STARLINK-2533","CLASSIFICATION_TYPE":"U"},{"OBJECT_NAME":"STARLINK-2535","OBJECT_ID":"2021-036V","RA_OF_ASC_NODE":"133.1490","CLASSIFICATION_TYPE":"U","REF_FRAME":"TEME","APOAPSIS":"548.211","PERIAPSIS":"546.244","MEAN_ELEMENT_THEORY":"SGP4","CENTER_NAME":"EARTH","ELEMENT_SET_NO":"999","TIME_SYSTEM":"UTC","SEMIMAJOR_AXIS":"6925.362","BSTAR":"0.00012554000000","MEAN_MOTION_DDOT":"0.0000000000000","SITE":"AFETR","INCLINATION":"53.0550","GP_ID":"210823118","ARG_OF_PERICENTER":"77.5561","RCS_SIZE":"LARGE","TLE_LINE1":"1 48295U 21036V   22235.12613511  .00001589  00000-0  12554-3 0  9997","LAUNCH_DATE":"2021-04-29","DECAY_DATE":null,"NORAD_CAT_ID":"48295","REV_AT_EPOCH":"7319","EPOCH":"2022-08-23T03:01:38.073504","ECCENTRICITY":"0.00014200","PERIOD":"95.592","EPHEMERIS_TYPE":"0","MEAN_MOTION":"15.06395533","TLE_LINE2":"2 48295  53.0550 133.1490 0001420  77.5561 282.5587 15.06395533 73194","MEAN_ANOMALY":"282.5587","MEAN_MOTION_DOT":"0.00001589","OBJECT_TYPE":"PAYLOAD","FILE":"3545070","COUNTRY_CODE":"US"},{"PERIOD":"95.593","ECCENTRICITY":"0.00014640","REV_AT_EPOCH":"7324","NORAD_CAT_ID":"48296","EPOCH":"2022-08-23T10:54:00.938592","DECAY_DATE":null,"TLE_LINE1":"1 48296U 21036W   22235.45417753  .00000640  00000-0  61890-4 0  9999","LAUNCH_DATE":"2021-04-29","RCS_SIZE":"LARGE","GP_ID":"210822367","ARG_OF_PERICENTER":"79.1220","COUNTRY_CODE":"US","OBJECT_TYPE":"PAYLOAD","FILE":"3545070","MEAN_ANOMALY":"280.9934","TLE_LINE2":"2 48296  53.0554 131.6763 0001464  79.1220 280.9934 15.06390629 73248","MEAN_MOTION_DOT":"0.00000640","EPHEMERIS_TYPE":"0","MEAN_MOTION":"15.06390629","ELEMENT_SET_NO":"999","MEAN_ELEMENT_THEORY":"SGP4","CENTER_NAME":"EARTH","REF_FRAME":"TEME","APOAPSIS":"548.256","PERIAPSIS":"546.228","CLASSIFICATION_TYPE":"U","OBJECT_ID":"2021-036W","OBJECT_NAME":"STARLINK-2546","RA_OF_ASC_NODE":"131.6763","INCLINATION":"53.0554","SITE":"AFETR","BSTAR":"0.00006189000000","MEAN_MOTION_DDOT":"0.0000000000000","SEMIMAJOR_AXIS":"6925.377","TIME_SYSTEM":"UTC"},{"COUNTRY_CODE":"US","EPHEMERIS_TYPE":"0","MEAN_MOTION":"15.06398909","OBJECT_TYPE":"PAYLOAD","FILE":"3545070","TLE_LINE2":"2 48297  53.0543 131.6819 0001600  65.4420 294.6736 15.06398909 73242","MEAN_ANOMALY":"294.6736","MEAN_MOTION_DOT":"0.00003115","EPOCH":"2022-08-23T10:48:42.925248","REV_AT_EPOCH":"7324","NORAD_CAT_ID":"48297","DECAY_DATE":null,"PERIOD":"95.592","ECCENTRICITY":"0.00016000","GP_ID":"210822617","ARG_OF_PERICENTER":"65.4420","TLE_LINE1":"1 48297U 21036X   22235.45049682  .00003115  00000-0  22794-3 0  9991","LAUNCH_DATE":"2021-04-29","RCS_SIZE":"LARGE","BSTAR":"0.00022794000000","MEAN_MOTION_DDOT":"0.0000000000000","SEMIMAJOR_AXIS":"6925.352","INCLINATION":"53.0543","SITE":"AFETR","TIME_SYSTEM":"UTC","REF_FRAME":"TEME","PERIAPSIS":"546.109","APOAPSIS":"548.325","ELEMENT_SET_NO":"999","MEAN_ELEMENT_THEORY":"SGP4","CENTER_NAME":"EARTH","OBJECT_NAME":"STARLINK-2544","OBJECT_ID":"2021-036X","RA_OF_ASC_NODE":"131.6819","CLASSIFICATION_TYPE":"U"},{"ELEMENT_SET_NO":"999","CENTER_NAME":"EARTH","MEAN_ELEMENT_THEORY":"SGP4","APOAPSIS":"548.241","PERIAPSIS":"546.195","REF_FRAME":"TEME","CLASSIFICATION_TYPE":"U","RA_OF_ASC_NODE":"129.9220","OBJECT_NAME":"STARLINK-2559","OBJECT_ID":"2021-036Y","INCLINATION":"53.0549","SITE":"AFETR","MEAN_MOTION_DDOT":"0.0000000000000","BSTAR":"0.00004323000000","SEMIMAJOR_AXIS":"6925.353","TIME_SYSTEM":"UTC","PERIOD":"95.592","ECCENTRICITY":"0.00014770","REV_AT_EPOCH":"7330","EPOCH":"2022-08-23T20:16:38.493408","NORAD_CAT_ID":"48298","DECAY_DATE":null,"LAUNCH_DATE":"2021-04-29","TLE_LINE1":"1 48298U 21036Y   22235.84488997  .00000362  00000-0  43230-4 0  9991","RCS_SIZE":"LARGE","GP_ID":"210859381","ARG_OF_PERICENTER":"76.1242","COUNTRY_CODE":"US","FILE":"3545624","OBJECT_TYPE":"PAYLOAD","MEAN_MOTION_DOT":"0.00000362","MEAN_ANOMALY":"283.9912","TLE_LINE2":"2 48298  53.0549 129.9220 0001477  76.1242 283.9912 15.06398521 73302","MEAN_MOTION":"15.06398521","EPHEMERIS_TYPE":"0"},{"ARG_OF_PERICENTER":"72.9999","GP_ID":"210823618","LAUNCH_DATE":"2021-04-29","TLE_LINE1":"1 48299U 21036Z   22235.44312792  .00001408  00000-0  11344-3 0  9999","RCS_SIZE":"MEDIUM","REV_AT_EPOCH":"7324","EPOCH":"2022-08-23T10:38:06.252288","NORAD_CAT_ID":"48299","DECAY_DATE":null,"PERIOD":"95.593","ECCENTRICITY":"0.00017660","MEAN_MOTION":"15.06393474","EPHEMERIS_TYPE":"0","FILE":"3545070","OBJECT_TYPE":"PAYLOAD","MEAN_MOTION_DOT":"0.00001408","TLE_LINE2":"2 48299  53.0542 131.7125 0001766  72.9999 287.1183 15.06393474 73246","MEAN_ANOMALY":"287.1183","COUNTRY_CODE":"US","RA_OF_ASC_NODE":"131.7125","OBJECT_ID":"2021-036Z","OBJECT_NAME":"STARLINK-2557","CLASSIFICATION_TYPE":"U","PERIAPSIS":"546.011","APOAPSIS":"548.457","REF_FRAME":"TEME","ELEMENT_SET_NO":"999","CENTER_NAME":"EARTH","MEAN_ELEMENT_THEORY":"SGP4","TIME_SYSTEM":"UTC","MEAN_MOTION_DDOT":"0.0000000000000","BSTAR":"0.00011344000000","SEMIMAJOR_AXIS":"6925.369","INCLINATION":"53.0542","SITE":"AFETR"},{"COUNTRY_CODE":"US","EPHEMERIS_TYPE":"0","MEAN_MOTION":"15.06399645","TLE_LINE2":"2 48300  53.0534 141.7487 0001533  71.8102 288.3054 15.06399645 73109","MEAN_ANOMALY":"288.3054","MEAN_MOTION_DOT":"0.00003306","FILE":"3545070","OBJECT_TYPE":"PAYLOAD","DECAY_DATE":null,"NORAD_CAT_ID":"48300","EPOCH":"2022-08-23T10:26:08.556000","REV_AT_EPOCH":"7310","ECCENTRICITY":"0.00015330","PERIOD":"95.592","GP_ID":"210821868","ARG_OF_PERICENTER":"71.8102","RCS_SIZE":"LARGE","TLE_LINE1":"1 48300U 21036AA  22235.43482125  .00003306  00000-0  24076-3 0  9994","LAUNCH_DATE":"2021-04-29","SEMIMAJOR_AXIS":"6925.350","BSTAR":"0.00024076000000","MEAN_MOTION_DDOT":"0.0000000000000","SITE":"AFETR","INCLINATION":"53.0534","TIME_SYSTEM":"UTC","REF_FRAME":"TEME","PERIAPSIS":"546.153","APOAPSIS":"548.276","MEAN_ELEMENT_THEORY":"SGP4","CENTER_NAME":"EARTH","ELEMENT_SET_NO":"999","OBJECT_NAME":"STARLINK-2538","OBJECT_ID":"2021-036AA","RA_OF_ASC_NODE":"141.7487","CLASSIFICATION_TYPE":"U"},{"EPHEMERIS_TYPE":"0","MEAN_MOTION":"15.06393409","MEAN_ANOMALY":"276.6713","TLE_LINE2":"2 48301  53.0551 139.6935 0001730  83.4473 276.6713 15.06393409 73162","MEAN_MOTION_DOT":"0.00000040","FILE":"3545624","OBJECT_TYPE":"PAYLOAD","COUNTRY_CODE":"US","GP_ID":"210859633","ARG_OF_PERICENTER":"83.4473","RCS_SIZE":"LARGE","TLE_LINE1":"1 48301U 21036AB  22235.89557850  .00000040  00000-0  21571-4 0  9993","LAUNCH_DATE":"2021-04-29","DECAY_DATE":null,"EPOCH":"2022-08-23T21:29:37.982400","NORAD_CAT_ID":"48301","REV_AT_EPOCH":"7316","ECCENTRICITY":"0.00017300","PERIOD":"95.593","TIME_SYSTEM":"UTC","SEMIMAJOR_AXIS":"6925.369","BSTAR":"0.00002157100000","MEAN_MOTION_DDOT":"0.0000000000000","SITE":"AFETR","INCLINATION":"53.0551","OBJECT_NAME":"STARLINK-2537","OBJECT_ID":"2021-036AB","RA_OF_ASC_NODE":"139.6935","CLASSIFICATION_TYPE":"U","REF_FRAME":"TEME","PERIAPSIS":"546.036","APOAPSIS":"548.432","MEAN_ELEMENT_THEORY":"SGP4","CENTER_NAME":"EARTH","ELEMENT_SET_NO":"999"},{"MEAN_ELEMENT_THEORY":"SGP4","CENTER_NAME":"EARTH","ELEMENT_SET_NO":"999","REF_FRAME":"TEME","PERIAPSIS":"546.127","APOAPSIS":"548.322","CLASSIFICATION_TYPE":"U","OBJECT_ID":"2021-036AC","OBJECT_NAME":"STARLINK-2556","RA_OF_ASC_NODE":"139.6964","SITE":"AFETR","INCLINATION":"53.0544","SEMIMAJOR_AXIS":"6925.359","BSTAR":"0.00015705000000","MEAN_MOTION_DDOT":"0.0000000000000","TIME_SYSTEM":"UTC","ECCENTRICITY":"0.00015850","PERIOD":"95.592","DECAY_DATE":null,"EPOCH":"2022-08-23T21:24:18.449280","NORAD_CAT_ID":"48302","REV_AT_EPOCH":"7316","RCS_SIZE":"LARGE","TLE_LINE1":"1 48302U 21036AC  22235.89188020  .00002058  00000-0  15705-3 0  9995","LAUNCH_DATE":"2021-04-29","GP_ID":"210859881","ARG_OF_PERICENTER":"73.2235","COUNTRY_CODE":"US","TLE_LINE2":"2 48302  53.0544 139.6964 0001585  73.2235 286.8928 15.06396481 73162","MEAN_ANOMALY":"286.8928","MEAN_MOTION_DOT":"0.00002058","OBJECT_TYPE":"PAYLOAD","FILE":"3545624","EPHEMERIS_TYPE":"0","MEAN_MOTION":"15.06396481"}];
